{"type": "FeatureCollection", "features": [ {"type": "Feature", "properties": {"norad_id": 66619, "name": "STARLINK-35951", "group": "last-30-days", "lat": -40.10447138377183, "lon": 58.03276439422881, "alt_km": 391.2542182818661, "timestamp": "2025-12-10T07:43:53.549988+00:00", "meta": {"OBJECT_NAME": "STARLINK-35951", "OBJECT_ID": "2025-271C", "EPOCH": "2025-12-09T20:00:01.999008", "MEAN_MOTION": 15.6263024, "ECCENTRICITY": 7.42e-05, "INCLINATION": 53.1593, "RA_OF_ASC_NODE": 201.257, "ARG_OF_PERICENTER": 99.138, "MEAN_ANOMALY": 265.0883, "EPHEMERIS_TYPE": 0, "CLASSIFICATION_TYPE": "U", "NORAD_CAT_ID": 66619, "ELEMENT_SET_NO": 999, "REV_AT_EPOCH": 377, "BSTAR": -0.025407, "MEAN_MOTION_DOT": -0.0203033, "MEAN_MOTION_DDOT": 0}, "tle": {"line1": "1 66619U 25271C   25343.83335647 -.02030330  00000+0 -25407-1 0  9992", "line2": "2 66619  53.1593 201.2570 0000742  99.1380 265.0883 15.62630240  3774"}}, "geometry": {"type": "Point", "coordinates": [58.03276439422881, -40.10447138377183]}}, {"type": "Feature", "properties": {"norad_id": 66620, "name": "STARLINK-35936", "group": "last-30-days", "lat": -36.404022669156376, "lon": 52.45126429884263, "alt_km": 391.0223291805196, "timestamp": "2025-12-10T07:43:53.549998+00:00", "meta": {"OBJECT_NAME": "STARLINK-35936", "OBJECT_ID": "2025-271D", "EPOCH": "2025-12-09T20:00:01.999008", "MEAN_MOTION": 15.62629386, "ECCENTRICITY": 6.98e-05, "INCLINATION": 53.1593, "RA_OF_ASC_NODE": 201.2701, "ARG_OF_PERICENTER": 96.9207, "MEAN_ANOMALY": 261.5553, "EPHEMERIS_TYPE": 0, "CLASSIFICATION_TYPE": "U", "NORAD_CAT_ID": 66620, "ELEMENT_SET_NO": 999, "REV_AT_EPOCH": 377, "BSTAR": -0.025385, "MEAN_MOTION_DOT": -0.0202869, "MEAN_MOTION_DDOT": 0}, "tle": {"line1": "1 66620U 25271D   25343.83335647 -.02028690  00000+0 -25385-1 0  9995", "line2": "2 66620  53.1593 201.2701 0000698  96.9207 261.5553 15.62629386  3779"}}, "geometry": {"type": "Point", "coordinates": [52.45126429884263, -36.404022669156376]}}, {"type": "Feature", "properties": {"norad_id": 66621, "name": "STARLINK-35847", "group": "last-30-days", "lat": -51.304047534747674, "lon": 129.3896188309584, "alt_km": 391.8615883098464, "timestamp": "2025-12-10T07:43:53.550008+00:00", "meta": {"OBJECT_NAME": "STARLINK-35847", "OBJECT_ID": "2025-271E", "EPOCH": "2025-12-09T20:00:01.999008", "MEAN_MOTION": 15.62629638, "ECCENTRICITY": 8.83e-05, "INCLINATION": 53.1597, "RA_OF_ASC_NODE": 201.1538, "ARG_OF_PERICENTER": 100.611, "MEAN_ANOMALY": 312.8101, "EPHEMERIS_TYPE": 0, "CLASSIFICATION_TYPE": "U", "NORAD_CAT_ID": 66621, "ELEMENT_SET_NO": 999, "REV_AT_EPOCH": 377, "BSTAR": -0.025419, "MEAN_MOTION_DOT": -0.02031236, "MEAN_MOTION_DDOT": 0}, "tle": {"line1": "1 66621U 25271E   25343.83335647 -.02031236  00000+0 -25419-1 0  9994", "line2": "2 66621  53.1597 201.1538 0000883 100.6110 312.8101 15.62629638  3772"}}, "geometry": {"type": "Point", "coordinates": [129.3896188309584, -51.304047534747674]}}, {"type": "Feature", "properties": {"norad_id": 66622, "name": "STARLINK-35950", "group": "last-30-days", "lat": -41.2744960679988, "lon": 60.02608019965365, "alt_km": 391.32799316210003, "timestamp": "2025-12-10T07:43:53.550021+00:00", "meta": {"OBJECT_NAME": "STARLINK-35950", "OBJECT_ID": "2025-271F", "EPOCH": "2025-12-09T20:00:01.999008", "MEAN_MOTION": 15.62627479, "ECCENTRICITY": 7.09e-05, "INCLINATION": 53.1595, "RA_OF_ASC_NODE": 201.2541, "ARG_OF_PERICENTER": 95.2239, "MEAN_ANOMALY": 270.9198, "EPHEMERIS_TYPE": 0, "CLASSIFICATION_TYPE": "U", "NORAD_CAT_ID": 66622, "ELEMENT_SET_NO": 999, "REV_AT_EPOCH": 377, "BSTAR": -0.025346, "MEAN_MOTION_DOT": -0.02025859, "MEAN_MOTION_DDOT": 0}, "tle": {"line1": "1 66622U 25271F   25343.83335647 -.02025859  00000+0 -25346-1 0  9998", "line2": "2 66622  53.1595 201.2541 0000709  95.2239 270.9198 15.62627479  3775"}}, "geometry": {"type": "Point", "coordinates": [60.02608019965365, -41.2744960679988]}}, {"type": "Feature", "properties": {"norad_id": 66623, "name": "STARLINK-35920", "group": "last-30-days", "lat": -43.50539594543499, "lon": 64.23064232557223, "alt_km": 391.49660833362213, "timestamp": "2025-12-10T07:43:53.550031+00:00", "meta": {"OBJECT_NAME": "STARLINK-35920", "OBJECT_ID": "2025-271G", "EPOCH": "2025-12-09T20:00:01.999008", "MEAN_MOTION": 15.62632987, "ECCENTRICITY": 7.94e-05, "INCLINATION": 53.1594, "RA_OF_ASC_NODE": 201.2453, "ARG_OF_PERICENTER": 95.572, "MEAN_ANOMALY": 274.4034, "EPHEMERIS_TYPE": 0, "CLASSIFICATION_TYPE": "U", "NORAD_CAT_ID": 66623, "ELEMENT_SET_NO": 999, "REV_AT_EPOCH": 377, "BSTAR": -0.025439, "MEAN_MOTION_DOT": -0.02032837, "MEAN_MOTION_DDOT": 0}, "tle": {"line1": "1 66623U 25271G   25343.83335647 -.02032837  00000+0 -25439-1 0  9996", "line2": "2 66623  53.1594 201.2453 0000794  95.5720 274.4034 15.62632987  3777"}}, "geometry": {"type": "Point", "coordinates": [64.23064232557223, -43.50539594543499]}}, {"type": "Feature", "properties": {"norad_id": 66624, "name": "STARLINK-35927", "group": "last-30-days", "lat": -42.40881927829324, "lon": 62.09081039163801, "alt_km": 391.3797271072399, "timestamp": "2025-12-10T07:43:53.550041+00:00", "meta": {"OBJECT_NAME": "STARLINK-35927", "OBJECT_ID": "2025-271H", "EPOCH": "2025-12-09T20:00:01.999008", "MEAN_MOTION": 15.6262635, "ECCENTRICITY": 7.02e-05, "INCLINATION": 53.1593, "RA_OF_ASC_NODE": 201.2501, "ARG_OF_PERICENTER": 94.7037, "MEAN_ANOMALY": 273.3556, "EPHEMERIS_TYPE": 0, "CLASSIFICATION_TYPE": "U", "NORAD_CAT_ID": 66624, "ELEMENT_SET_NO": 999, "REV_AT_EPOCH": 377, "BSTAR": -0.025302, "MEAN_MOTION_DOT": -0.02022674, "MEAN_MOTION_DDOT": 0}, "tle": {"line1": "1 66624U 25271H   25343.83335647 -.02022674  00000+0 -25302-1 0  9994", "line2": "2 66624  53.1593 201.2501 0000702  94.7037 273.3556 15.62626350  3776"}}, "geometry": {"type": "Point", "coordinates": [62.09081039163801, -42.40881927829324]}}, {"type": "Feature", "properties": {"norad_id": 66625, "name": "STARLINK-35929", "group": "last-30-days", "lat": -44.56012350398381, "lon": 66.44814399675603, "alt_km": 391.55279164914555, "timestamp": "2025-12-10T07:43:53.550051+00:00", "meta": {"OBJECT_NAME": "STARLINK-35929", "OBJECT_ID": "2025-271J", "EPOCH": "2025-12-09T20:00:01.999008", "MEAN_MOTION": 15.62635833, "ECCENTRICITY": 8.7e-05, "INCLINATION": 53.1594, "RA_OF_ASC_NODE": 201.2408, "ARG_OF_PERICENTER": 101.4515, "MEAN_ANOMALY": 270.4393, "EPHEMERIS_TYPE": 0, "CLASSIFICATION_TYPE": "U", "NORAD_CAT_ID": 66625, "ELEMENT_SET_NO": 999, "REV_AT_EPOCH": 377, "BSTAR": -0.025498, "MEAN_MOTION_DOT": -0.02037198, "MEAN_MOTION_DDOT": 0}, "tle": {"line1": "1 66625U 25271J   25343.83335647 -.02037198  00000+0 -25498-1 0  9998", "line2": "2 66625  53.1594 201.2408 0000870 101.4515 270.4393 15.62635833  3770"}}, "geometry": {"type": "Point", "coordinates": [66.44814399675603, -44.56012350398381]}}, {"type": "Feature", "properties": {"norad_id": 66626, "name": "STARLINK-35902", "group": "last-30-days", "lat": -45.56933855181405, "lon": 68.7448174302892, "alt_km": 391.566416734795, "timestamp": "2025-12-10T07:43:53.550063+00:00", "meta": {"OBJECT_NAME": "STARLINK-35902", "OBJECT_ID": "2025-271K", "EPOCH": "2025-12-09T20:00:01.999008", "MEAN_MOTION": 15.62632434, "ECCENTRICITY": 7.7e-05, "INCLINATION": 53.1595, "RA_OF_ASC_NODE": 201.2375, "ARG_OF_PERICENTER": 97.1352, "MEAN_ANOMALY": 276.6721, "EPHEMERIS_TYPE": 0, "CLASSIFICATION_TYPE": "U", "NORAD_CAT_ID": 66626, "ELEMENT_SET_NO": 999, "REV_AT_EPOCH": 377, "BSTAR": -0.025406, "MEAN_MOTION_DOT": -0.02030481, "MEAN_MOTION_DDOT": 0}, "tle": {"line1": "1 66626U 25271K   25343.83335647 -.02030481  00000+0 -25406-1 0  9996", "line2": "2 66626  53.1595 201.2375 0000770  97.1352 276.6721 15.62632434  3771"}}, "geometry": {"type": "Point", "coordinates": [68.7448174302892, -45.56933855181405]}}, {"type": "Feature", "properties": {"norad_id": 66627, "name": "STARLINK-35904", "group": "last-30-days", "lat": -46.53124062616588, "lon": 71.12401208642196, "alt_km": 391.60529349190347, "timestamp": "2025-12-10T07:43:53.550075+00:00", "meta": {"OBJECT_NAME": "STARLINK-35904", "OBJECT_ID": "2025-271L", "EPOCH": "2025-12-09T20:00:01.999008", "MEAN_MOTION": 15.62627934, "ECCENTRICITY": 7.78e-05, "INCLINATION": 53.1596, "RA_OF_ASC_NODE": 201.2333, "ARG_OF_PERICENTER": 99.0903, "MEAN_ANOMALY": 276.6381, "EPHEMERIS_TYPE": 0, "CLASSIFICATION_TYPE": "U", "NORAD_CAT_ID": 66627, "ELEMENT_SET_NO": 999, "REV_AT_EPOCH": 361, "BSTAR": -0.025365, "MEAN_MOTION_DOT": -0.02027256, "MEAN_MOTION_DDOT": 0}, "tle": {"line1": "1 66627U 25271L   25343.83335647 -.02027256  00000+0 -25365-1 0  9997", "line2": "2 66627  53.1596 201.2333 0000778  99.0903 276.6381 15.62627934  3612"}}, "geometry": {"type": "Point", "coordinates": [71.12401208642196, -46.53124062616588]}}, {"type": "Feature", "properties": {"norad_id": 66628, "name": "STARLINK-35862", "group": "last-30-days", "lat": -47.44171832871367, "lon": 73.58717768834366, "alt_km": 391.6555584214402, "timestamp": "2025-12-10T07:43:53.550085+00:00", "meta": {"OBJECT_NAME": "STARLINK-35862", "OBJECT_ID": "2025-271M", "EPOCH": "2025-12-09T20:00:01.999008", "MEAN_MOTION": 15.62632058, "ECCENTRICITY": 8.09e-05, "INCLINATION": 53.1595, "RA_OF_ASC_NODE": 201.2294, "ARG_OF_PERICENTER": 101.8574, "MEAN_ANOMALY": 275.7861, "EPHEMERIS_TYPE": 0, "CLASSIFICATION_TYPE": "U", "NORAD_CAT_ID": 66628, "ELEMENT_SET_NO": 999, "REV_AT_EPOCH": 377, "BSTAR": -0.025444, "MEAN_MOTION_DOT": -0.02033117, "MEAN_MOTION_DDOT": 0}, "tle": {"line1": "1 66628U 25271M   25343.83335647 -.02033117  00000+0 -25444-1 0  9999", "line2": "2 66628  53.1595 201.2294 0000809 101.8574 275.7861 15.62632058  3772"}}, "geometry": {"type": "Point", "coordinates": [73.58717768834366, -47.44171832871367]}}]}